{
  "type": "FeatureCollection",
  "features": [
    {
      "type": "Feature",
      "properties": {
        "norad_id": 41772,
        "name": "SKYSAT-C5",
        "group": "resource",
        "lat": 81.70214906241375,
        "lon": -89.14064271837451,
        "alt_km": 454.2658813095795,
        "timestamp": "2025-12-14T18:52:55.155618+00:00",
        "meta_object_name": "SKYSAT-C5",
        "meta_object_id": "2016-058C",
        "meta_epoch": "2025-12-13T20:33:58.290624",
        "meta_mean_motion": 15.34797926,
        "meta_eccentricity": 0.00011373,
        "meta_inclination": 97.0765,
        "meta_ra_of_asc_node": 31.5619,
        "meta_arg_of_pericenter": 205.5411,
        "meta_mean_anomaly": 154.5777,
        "meta_ephemeris_type": 0,
        "meta_classification_type": "U",
        "meta_norad_cat_id": 41772,
        "meta_element_set_no": 999,
        "meta_rev_at_epoch": 51533,
        "meta_bstar": 0.00035295066,
        "meta_mean_motion_dot": 0.00011837,
        "meta_mean_motion_ddot": 0,
        "tle_line1": "1 41772U 16058C   25347.85692466  .00011837  00000+0  35295-3 0  9994",
        "tle_line2": "2 41772  97.0765  31.5619 0001137 205.5411 154.5777 15.34797926515338"
      },
      "geometry": {
        "type": "Point",
        "coordinates": [
          -89.14064271837451,
          81.70214906241375
        ]
      }
    },
    {
      "type": "Feature",
      "properties": {
        "norad_id": 41773,
        "name": "SKYSAT-C2",
        "group": "resource",
        "lat": 54.09783983232533,
        "lon": -156.94845123290088,
        "alt_km": 449.2911940771264,
        "timestamp": "2025-12-14T18:52:55.155630+00:00",
        "meta_object_name": "SKYSAT-C2",
        "meta_object_id": "2016-058D",
        "meta_epoch": "2025-12-13T23:35:35.643552",
        "meta_mean_motion": 15.37308378,
        "meta_eccentricity": 0.00041218,
        "meta_inclination": 97.0369,
        "meta_ra_of_asc_node": 12.4572,
        "meta_arg_of_pericenter": 31.4865,
        "meta_mean_anomaly": 328.6627,
        "meta_ephemeris_type": 0,
        "meta_classification_type": "U",
        "meta_norad_cat_id": 41773,
        "meta_element_set_no": 999,
        "meta_rev_at_epoch": 51655,
        "meta_bstar": 0.00035711512,
        "meta_mean_motion_dot": 0.00012988,
        "meta_mean_motion_ddot": 0,
        "tle_line1": "1 41773U 16058D   25347.98305143  .00012988  00000+0  35712-3 0  9994",
        "tle_line2": "2 41773  97.0369  12.4572 0004121  31.4865 328.6627 15.37308378516555"
      },
      "geometry": {
        "type": "Point",
        "coordinates": [
          -156.94845123290088,
          54.09783983232533
        ]
      }
    },
    {
      "type": "Feature",
      "properties": {
        "norad_id": 41774,
        "name": "SKYSAT-C3",
        "group": "resource",
        "lat": 6.126774056240867,
        "lon": 21.689740921719192,
        "alt_km": 435.3617378027775,
        "timestamp": "2025-12-14T18:52:55.155641+00:00",
        "meta_object_name": "SKYSAT-C3",
        "meta_object_id": "2016-058E",
        "meta_epoch": "2025-12-14T00:11:45.043008",
        "meta_mean_motion": 15.44453958,
        "meta_eccentricity": 0.00017051,
        "meta_inclination": 96.9308,
        "meta_ra_of_asc_node": 21.6953,
        "meta_arg_of_pericenter": 107.5022,
        "meta_mean_anomaly": 252.6414,
        "meta_ephemeris_type": 0,
        "meta_classification_type": "U",
        "meta_norad_cat_id": 41774,
        "meta_element_set_no": 999,
        "meta_rev_at_epoch": 51745,
        "meta_bstar": 0.00044156247,
        "meta_mean_motion_dot": 0.00020381,
        "meta_mean_motion_ddot": 0,
        "tle_line1": "1 41774U 16058E   25348.00816022  .00020381  00000+0  44156-3 0  9990",
        "tle_line2": "2 41774  96.9308  21.6953 0001705 107.5022 252.6414 15.44453958517450"
      },
      "geometry": {
        "type": "Point",
        "coordinates": [
          21.689740921719192,
          6.126774056240867
        ]
      }
    },
    {
      "type": "Feature",
      "properties": {
        "norad_id": 41785,
        "name": "ALSAT 1B",
        "group": "resource",
        "lat": 51.62144864453865,
        "lon": -9.454759802009553,
        "alt_km": 644.2992832300915,
        "timestamp": "2025-12-14T18:52:55.155651+00:00",
        "meta_object_name": "ALSAT 1B",
        "meta_object_id": "2016-059C",
        "meta_epoch": "2025-12-14T00:42:02.492928",
        "meta_mean_motion": 14.72078751,
        "meta_eccentricity": 0.00107393,
        "meta_inclination": 97.782,
        "meta_ra_of_asc_node": 359.7636,
        "meta_arg_of_pericenter": 99.6049,
        "meta_mean_anomaly": 260.6373,
        "meta_ephemeris_type": 0,
        "meta_classification_type": "U",
        "meta_norad_cat_id": 41785,
        "meta_element_set_no": 999,
        "meta_rev_at_epoch": 49333,
        "meta_bstar": 0.00016927482,
        "meta_mean_motion_dot": 1.018e-05,
        "meta_mean_motion_ddot": 0,
        "tle_line1": "1 41785U 16059C   25348.02919552  .00001018  00000+0  16927-3 0  9998",
        "tle_line2": "2 41785  97.7820 359.7636 0010739  99.6049 260.6373 14.72078751493337"
      },
      "geometry": {
        "type": "Point",
        "coordinates": [
          -9.454759802009553,
          51.62144864453865
        ]
      }
    },
    {
      "type": "Feature",
      "properties": {
        "norad_id": 41787,
        "name": "PATHFINDER 1",
        "group": "resource",
        "lat": 80.03554746351155,
        "lon": -137.12512730756848,
        "alt_km": 642.5082591254704,
        "timestamp": "2025-12-14T18:52:55.155662+00:00",
        "meta_object_name": "PATHFINDER 1",
        "meta_object_id": "2016-059E",
        "meta_epoch": "2025-12-13T22:48:28.622592",
        "meta_mean_motion": 14.67323702,
        "meta_eccentricity": 0.00300153,
        "meta_inclination": 97.8139,
        "meta_ra_of_asc_node": 350.6677,
        "meta_arg_of_pericenter": 77.5558,
        "meta_mean_anomaly": 282.9004,
        "meta_ephemeris_type": 0,
        "meta_classification_type": "U",
        "meta_norad_cat_id": 41787,
        "meta_element_set_no": 999,
        "meta_rev_at_epoch": 49254,
        "meta_bstar": 0.00020794649,
        "meta_mean_motion_dot": 1.135e-05,
        "meta_mean_motion_ddot": 0,
        "tle_line1": "1 41787U 16059E   25347.95033128  .00001135  00000+0  20795-3 0  9995",
        "tle_line2": "2 41787  97.8139 350.6677 0030015  77.5558 282.9004 14.67323702492540"
      },
      "geometry": {
        "type": "Point",
        "coordinates": [
          -137.12512730756848,
          80.03554746351155
        ]
      }
    },
    {
      "type": "Feature",
      "properties": {
        "norad_id": 41790,
        "name": "SCATSAT 1",
        "group": "resource",
        "lat": 5.110338036382375,
        "lon": -133.78334536510786,
        "alt_km": 611.1991179436391,
        "timestamp": "2025-12-14T18:52:55.155673+00:00",
        "meta_object_name": "SCATSAT 1",
        "meta_object_id": "2016-059H",
        "meta_epoch": "2025-12-13T22:36:50.758560",
        "meta_mean_motion": 14.78942845,
        "meta_eccentricity": 0.00563182,
        "meta_inclination": 98.1466,
        "meta_ra_of_asc_node": 44.6276,
        "meta_arg_of_pericenter": 124.189,
        "meta_mean_anomaly": 236.4677,
        "meta_ephemeris_type": 0,
        "meta_classification_type": "U",
        "meta_norad_cat_id": 41790,
        "meta_element_set_no": 999,
        "meta_rev_at_epoch": 7420,
        "meta_bstar": 0.00029681332,
        "meta_mean_motion_dot": 2.192e-05,
        "meta_mean_motion_ddot": 0,
        "tle_line1": "1 41790U 16059H   25347.94225415  .00002192  00000+0  29681-3 0  9997",
        "tle_line2": "2 41790  98.1466  44.6276 0056318 124.1890 236.4677 14.78942845 74204"
      },
      "geometry": {
        "type": "Point",
        "coordinates": [
          -133.78334536510786,
          5.110338036382375
        ]
      }
    },
    {
      "type": "Feature",
      "properties": {
        "norad_id": 41875,
        "name": "GOKTURK 1A",
        "group": "resource",
        "lat": 39.539363007644,
        "lon": 67.91187755095471,
        "alt_km": 680.7778397125912,
        "timestamp": "2025-12-14T18:52:55.155683+00:00",
        "meta_object_name": "GOKTURK 1A",
        "meta_object_id": "2016-073A",
        "meta_epoch": "2025-12-14T00:11:10.250592",
        "meta_mean_motion": 14.62782704,
        "meta_eccentricity": 0.00012385,
        "meta_inclination": 98.1424,
        "meta_ra_of_asc_node": 240.3561,
        "meta_arg_of_pericenter": 78.6035,
        "meta_mean_anomaly": 281.5306,
        "meta_ephemeris_type": 0,
        "meta_classification_type": "U",
        "meta_norad_cat_id": 41875,
        "meta_element_set_no": 999,
        "meta_rev_at_epoch": 48175,
        "meta_bstar": 0.00018824268,
        "meta_mean_motion_dot": 9.13e-06,
        "meta_mean_motion_ddot": 0,
        "tle_line1": "1 41875U 16073A   25348.00775753  .00000913  00000+0  18824-3 0  9996",
        "tle_line2": "2 41875  98.1424 240.3561 0001238  78.6035 281.5306 14.62782704481750"
      },
      "geometry": {
        "type": "Point",
        "coordinates": [
          67.91187755095471,
          39.539363007644
        ]
      }
    }
  ]
}